{"type": "FeatureCollection", "features": [ {"type": "Feature", "properties": {"norad_id": 44476, "name": "INTELSAT 39 (IS-39)", "group": "intelsat", "lat": -0.03687971451702757, "lon": -112.19690428539035, "alt_km": 35787.13160378437, "timestamp": "2025-12-11T07:02:23.401807+00:00", "meta": {"OBJECT_NAME": "INTELSAT 39 (IS-39)", "OBJECT_ID": "2019-049B", "EPOCH": "2025-12-10T21:31:30.909792", "MEAN_MOTION": 1.0027062, "ECCENTRICITY": 9.467e-05, "INCLINATION": 0.0193, "RA_OF_ASC_NODE": 327.299, "ARG_OF_PERICENTER": 179.8863, "MEAN_ANOMALY": 317.5032, "EPHEMERIS_TYPE": 0, "CLASSIFICATION_TYPE": "U", "NORAD_CAT_ID": 44476, "ELEMENT_SET_NO": 999, "REV_AT_EPOCH": 2324, "BSTAR": 0, "MEAN_MOTION_DOT": 3.9e-07, "MEAN_MOTION_DDOT": 0}, "tle": {"line1": "1 44476U 19049B   25344.89688553  .00000039  00000+0  00000+0 0  9998", "line2": "2 44476   0.0193 327.2990 0000946 179.8863 317.5032  1.00270620 23243"}}, "geometry": {"type": "Point", "coordinates": [-112.19690428539035, -0.03687971451702757]}}, {"type": "Feature", "properties": {"norad_id": 46114, "name": "GALAXY 30 (G-30)", "group": "intelsat", "lat": 0.03342905565838871, "lon": 60.85759454336977, "alt_km": 35795.27789468371, "timestamp": "2025-12-11T07:02:23.401819+00:00", "meta": {"OBJECT_NAME": "GALAXY 30 (G-30)", "OBJECT_ID": "2020-056C", "EPOCH": "2025-12-10T14:39:34.689024", "MEAN_MOTION": 1.00272102, "ECCENTRICITY": 0.00023349, "INCLINATION": 0.016, "RA_OF_ASC_NODE": 326.8036, "ARG_OF_PERICENTER": 293.1888, "MEAN_ANOMALY": 274.4835, "EPHEMERIS_TYPE": 0, "CLASSIFICATION_TYPE": "U", "NORAD_CAT_ID": 46114, "ELEMENT_SET_NO": 999, "REV_AT_EPOCH": 1940, "BSTAR": 0, "MEAN_MOTION_DOT": 4.1e-07, "MEAN_MOTION_DDOT": 0}, "tle": {"line1": "1 46114U 20056C   25344.61081816  .00000041  00000+0  00000+0 0  9991", "line2": "2 46114   0.0160 326.8036 0002334 293.1888 274.4835  1.00272102 19406"}}, "geometry": {"type": "Point", "coordinates": [60.85759454336977, 0.03342905565838871]}}, {"type": "Feature", "properties": {"norad_id": 54026, "name": "GALAXY 33 (G-33)", "group": "intelsat", "lat": 0.026172722245975208, "lon": 52.86300982641929, "alt_km": 35794.14805617316, "timestamp": "2025-12-11T07:02:23.401831+00:00", "meta": {"OBJECT_NAME": "GALAXY 33 (G-33)", "OBJECT_ID": "2022-128A", "EPOCH": "2025-12-10T16:20:05.245728", "MEAN_MOTION": 1.0027149, "ECCENTRICITY": 0.00020636, "INCLINATION": 0.0101, "RA_OF_ASC_NODE": 314.8449, "ARG_OF_PERICENTER": 300.9384, "MEAN_ANOMALY": 295.8951, "EPHEMERIS_TYPE": 0, "CLASSIFICATION_TYPE": "U", "NORAD_CAT_ID": 54026, "ELEMENT_SET_NO": 999, "REV_AT_EPOCH": 1185, "BSTAR": 0, "MEAN_MOTION_DOT": 8.3e-07, "MEAN_MOTION_DDOT": 0}, "tle": {"line1": "1 54026U 22128A   25344.68061627  .00000083  00000+0  00000+0 0  9995", "line2": "2 54026   0.0101 314.8449 0002063 300.9384 295.8951  1.00271490 11850"}}, "geometry": {"type": "Point", "coordinates": [52.86300982641929, 0.026172722245975208]}}, {"type": "Feature", "properties": {"norad_id": 54027, "name": "GALAXY 34 (G-34)", "group": "intelsat", "lat": 0.04098662285387706, "lon": 56.921156289174846, "alt_km": 35791.84263340557, "timestamp": "2025-12-11T07:02:23.401843+00:00", "meta": {"OBJECT_NAME": "GALAXY 34 (G-34)", "OBJECT_ID": "2022-128B", "EPOCH": "2025-12-10T16:21:12.637728", "MEAN_MOTION": 1.0027074, "ECCENTRICITY": 0.00013698, "INCLINATION": 0.0234, "RA_OF_ASC_NODE": 332.8525, "ARG_OF_PERICENTER": 281.7333, "MEAN_ANOMALY": 301.4385, "EPHEMERIS_TYPE": 0, "CLASSIFICATION_TYPE": "U", "NORAD_CAT_ID": 54027, "ELEMENT_SET_NO": 999, "REV_AT_EPOCH": 1202, "BSTAR": 0, "MEAN_MOTION_DOT": 0, "MEAN_MOTION_DDOT": 0}, "tle": {"line1": "1 54027U 22128B   25344.68139627  .00000000  00000+0  00000+0 0  9991", "line2": "2 54027   0.0234 332.8525 0001369 281.7333 301.4385  1.00270740 12023"}}, "geometry": {"type": "Point", "coordinates": [56.921156289174846, 0.04098662285387706]}}, {"type": "Feature", "properties": {"norad_id": 54243, "name": "GALAXY 31 (G-31)", "group": "intelsat", "lat": 0.013924963567412647, "lon": 64.86860421912444, "alt_km": 35792.90347091364, "timestamp": "2025-12-11T07:02:23.401855+00:00", "meta": {"OBJECT_NAME": "GALAXY 31 (G-31)", "OBJECT_ID": "2022-153A", "EPOCH": "2025-12-10T14:40:42.081888", "MEAN_MOTION": 1.00272364, "ECCENTRICITY": 0.0001855, "INCLINATION": 0.0158, "RA_OF_ASC_NODE": 257.1069, "ARG_OF_PERICENTER": 14.3955, "MEAN_ANOMALY": 267.2647, "EPHEMERIS_TYPE": 0, "CLASSIFICATION_TYPE": "U", "NORAD_CAT_ID": 54243, "ELEMENT_SET_NO": 999, "REV_AT_EPOCH": 524, "BSTAR": 0, "MEAN_MOTION_DOT": 1.7e-07, "MEAN_MOTION_DDOT": 0}, "tle": {"line1": "1 54243U 22153A   25344.61159817  .00000017  00000+0  00000+0 0  9993", "line2": "2 54243   0.0158 257.1069 0001855  14.3955 267.2647  1.00272364  5240"}}, "geometry": {"type": "Point", "coordinates": [64.86860421912444, 0.013924963567412647]}}, {"type": "Feature", "properties": {"norad_id": 54244, "name": "GALAXY 32 (G-32)", "group": "intelsat", "lat": 0.025312420505122956, "lon": 94.85630322924574, "alt_km": 35795.37788083958, "timestamp": "2025-12-11T07:02:23.401866+00:00", "meta": {"OBJECT_NAME": "GALAXY 32 (G-32)", "OBJECT_ID": "2022-153B", "EPOCH": "2025-12-10T11:23:53.431008", "MEAN_MOTION": 1.00269631, "ECCENTRICITY": 0.00024863, "INCLINATION": 0.0094, "RA_OF_ASC_NODE": 343.9176, "ARG_OF_PERICENTER": 325.4249, "MEAN_ANOMALY": 210.0765, "EPHEMERIS_TYPE": 0, "CLASSIFICATION_TYPE": "U", "NORAD_CAT_ID": 54244, "ELEMENT_SET_NO": 999, "REV_AT_EPOCH": 1125, "BSTAR": 0, "MEAN_MOTION_DOT": -1.7e-06, "MEAN_MOTION_DDOT": 0}, "tle": {"line1": "1 54244U 22153B   25344.47492397 -.00000170  00000+0  00000+0 0  9992", "line2": "2 54244   0.0094 343.9176 0002486 325.4249 210.0765  1.00269631 11254"}}, "geometry": {"type": "Point", "coordinates": [94.85630322924574, 0.025312420505122956]}}, {"type": "Feature", "properties": {"norad_id": 54741, "name": "GALAXY 35 (G-35)", "group": "intelsat", "lat": 0.009091855671589618, "lon": 92.75600050374798, "alt_km": 35796.95224472485, "timestamp": "2025-12-11T07:02:23.401878+00:00", "meta": {"OBJECT_NAME": "GALAXY 35 (G-35)", "OBJECT_ID": "2022-170A", "EPOCH": "2025-12-10T19:56:54.262176", "MEAN_MOTION": 1.00271253, "ECCENTRICITY": 0.00025497, "INCLINATION": 0.0175, "RA_OF_ASC_NODE": 263.3792, "ARG_OF_PERICENTER": 2.0467, "MEAN_ANOMALY": 20.5117, "EPHEMERIS_TYPE": 0, "CLASSIFICATION_TYPE": "U", "NORAD_CAT_ID": 54741, "ELEMENT_SET_NO": 999, "REV_AT_EPOCH": 1100, "BSTAR": 0, "MEAN_MOTION_DOT": -1.57e-06, "MEAN_MOTION_DDOT": 0}, "tle": {"line1": "1 54741U 22170A   25344.83118359 -.00000157  00000+0  00000+0 0  9991", "line2": "2 54741   0.0175 263.3792 0002549   2.0467  20.5117  1.00271253 11006"}}, "geometry": {"type": "Point", "coordinates": [92.75600050374798, 0.009091855671589618]}}, {"type": "Feature", "properties": {"norad_id": 54742, "name": "GALAXY 36 (G-36)", "group": "intelsat", "lat": 0.02522625913297169, "lon": 96.84756362739529, "alt_km": 35787.76154289359, "timestamp": "2025-12-11T07:02:23.401890+00:00", "meta": {"OBJECT_NAME": "GALAXY 36 (G-36)", "OBJECT_ID": "2022-170B", "EPOCH": "2025-12-10T19:58:01.654176", "MEAN_MOTION": 1.00271691, "ECCENTRICITY": 3.85e-05, "INCLINATION": 0.0122, "RA_OF_ASC_NODE": 26.7159, "ARG_OF_PERICENTER": 250.6434, "MEAN_ANOMALY": 12.9469, "EPHEMERIS_TYPE": 0, "CLASSIFICATION_TYPE": "U", "NORAD_CAT_ID": 54742, "ELEMENT_SET_NO": 999, "REV_AT_EPOCH": 1088, "BSTAR": 0, "MEAN_MOTION_DOT": -1.8e-06, "MEAN_MOTION_DDOT": 0}, "tle": {"line1": "1 54742U 22170B   25344.83196359 -.00000180  00000+0  00000+0 0  9994", "line2": "2 54742   0.0122  26.7159 0000385 250.6434  12.9469  1.00271691 10884"}}, "geometry": {"type": "Point", "coordinates": [96.84756362739529, 0.02522625913297169]}}, {"type": "Feature", "properties": {"norad_id": 57493, "name": "GALAXY 37 (G-37)", "group": "intelsat", "lat": 0.022411428242281352, "lon": 58.8682362089731, "alt_km": 35794.54797348351, "timestamp": "2025-12-11T07:02:23.401901+00:00", "meta": {"OBJECT_NAME": "GALAXY 37 (G-37)", "OBJECT_ID": "2023-112A", "EPOCH": "2025-12-10T18:04:27.532416", "MEAN_MOTION": 1.0027219, "ECCENTRICITY": 0.00022775, "INCLINATION": 0.0092, "RA_OF_ASC_NODE": 10.3509, "ARG_OF_PERICENTER": 255.1161, "MEAN_ANOMALY": 318.3771, "EPHEMERIS_TYPE": 0, "CLASSIFICATION_TYPE": "U", "NORAD_CAT_ID": 57493, "ELEMENT_SET_NO": 999, "REV_AT_EPOCH": 865, "BSTAR": 0, "MEAN_MOTION_DOT": 5.3e-07, "MEAN_MOTION_DDOT": 0}, "tle": {"line1": "1 57493U 23112A   25344.75309644  .00000053  00000+0  00000+0 0  9999", "line2": "2 57493   0.0092  10.3509 0002277 255.1161 318.3771  1.00272190  8659"}}, "geometry": {"type": "Point", "coordinates": [58.8682362089731, 0.022411428242281352]}}]}